IRIDIUM 119             
1 42959U 17061E   24356.81600338  .00000016  00000+0 -14217-5 0  9990
2 42959  86.3970 251.8545 0001949  73.6173 286.5237 14.34217508377076
IRIDIUM 107             
1 42960U 17061F   24356.76526200  .00000101  00000+0  29085-4 0  9993
2 42960  86.3972 251.8939 0001593  81.7833 278.3543 14.34217028377071
IRIDIUM 132             
1 42961U 17061G   24356.77160840  .00000606  00000+0  20942-3 0  9991
2 42961  86.3971 251.8746 0001840  84.2556 275.8849 14.34220366377072
IRIDIUM 136             
1 42962U 17061H   24356.73354956 -.00000196  00000+0 -77121-4 0  9999
2 42962  86.3973 251.8944 0001723  71.7345 288.4038 14.34216518377087
IRIDIUM 139             
1 42963U 17061J   24356.73989203  .00000299  00000+0  99565-4 0  9997
2 42963  86.3974 251.9448 0001739  79.1513 280.9878 14.34218025377090
IRIDIUM 125             
1 42964U 17061K   24356.09928513  .00000203  00000+0  65327-4 0  9998
2 42964  86.3973 252.2636 0001968  63.9898 296.1501 14.34216638377016
IRIDIUM 135             
1 43070U 17083A   24356.84087077 -.00000032  00000+0 -18539-4 0  9990
2 43070  86.3993 188.6738 0002055  94.4680 265.6751 14.34218600366419
IRIDIUM 138             
1 43071U 17083B   24356.86623999  .00000140  00000+0  43004-4 0  9995
2 43071  86.3976 188.3574 0002283  72.7558 287.3888 14.34217901366406
